ORBCOMM FM33            
1 25983U 99065D   25149.22197363  .00000876  00000+0  32071-3 0  9996
2 25983  45.0286  89.1209 0010089 326.5896  33.4315 14.39962408333330
ORBCOMM FM36            
1 25984U 99065E   25149.44000670  .00000826  00000+0  31658-3 0  9990
2 25984  45.0377 179.7354 0004801 235.9068 124.1326 14.38081766331727
ORBCOMM FM35            
1 25985U 99065F   25149.40630303  .00000635  00000+0  25948-3 0  9992
2 25985  45.0381 184.7804 0005745 287.6096  72.4124 14.37057305332084
ORBCOMM FM34            
1 25986U 99065G   25149.51167439  .00000620  00000+0  25421-3 0  9990
2 25986  45.0376 184.7549 0006170 256.3851 103.6310 14.37086022332217
ORBCOMM FM38            
1 33060U 08031A   25149.93220148  .00001722  00000+0  24577-3 0  9993
2 33060  48.4420  42.2386 0005206 318.3412  41.7107 14.81256190912049
ORBCOMM FM41            
1 33061U 08031B   25149.94739181  .00001717  00000+0  24749-3 0  9992
2 33061  48.4455  49.8820 0004502 303.4413 147.5935 14.80842754911531
ORBCOMM FM29            
1 33062U 08031C   25149.93410078  .00001737  00000+0  24950-3 0  9999
2 33062  48.4406  57.7769 0006239 303.6513 153.7549 14.80941831911446
ORBCOMM FM39            
1 33063U 08031D   25149.52360460  .00001621  00000+0  24261-3 0  9991
2 33063  48.4410  83.8001 0007247 276.3160  83.6930 14.79502329911038
